STARLINK-3855
1 52474U 22049Z   26061.16668981  .01209155  00000+0  61083-2 0  9991
2 52474  53.2162  74.6006 0001189 103.0802 123.6397 15.78688935  5757
